CZ-4B R/B               
1 28059U 03049C   18009.75807469 -.00000003  00000-0  11162-4 0  9993
2 28059  98.5377 264.5102 0049797 338.3245  62.5489 14.52514426753664
CZ-2C R/B               
1 28222U 04012C   18009.88092589  .00000269  00000-0  20393-4 0  9998
2 28222  97.5542 327.8511 0047526 195.3429 222.7052 15.09561597751791
SL-16 R/B               
1 28353U 04021B   18009.61633356 -.00000266  00000-0 -11433-3 0  9990
2 28353  71.0003   5.5443 0007533 253.4925 106.5369 14.14200948701330
CZ-2C R/B               
1 28480U 04046B   18009.87245514 -.00000009  00000-0  12557-4 0  9994
2 28480  98.1901  97.7166 0141398 335.0643 132.4684 14.25662549683669
ARIANE 5 R/B            
1 28499U 04049H   18010.21893654  .00000017  00000-0  97509-5 0  9990
2 28499  98.0675  99.3142 0091013 266.9649 119.4160 14.79873699704616
CZ-2D R/B               
1 28738U 05024B   18009.71294277  .00000422  00000-0  28699-4 0  9992
2 28738  97.4739  47.2802 0012591  21.3344 338.8409 15.11412531687007
SUZAKU (ASTRO-EII)      
1 28773U 05025A   18010.19236796  .00000877  00000-0  39763-4 0  9996
2 28773  31.3840  33.5449 0004712 265.8753  94.1356 15.16305400688797
ALOS (DAICHI)           
1 28931U 06002A   18010.18252332  .00000118  00000-0  31848-4 0  9995
2 28931  97.8280  32.0060 0002287  56.6403 303.5018 14.62446330637710
H-2A R/B                
1 28932U 06002B   18009.84764956  .00000409  00000-0  44247-4 0  9997
2 28932  98.2193 306.1747 0089598 355.1413  36.0526 14.91603311648613
AKARI (ASTRO-F)         
1 28939U 06005A   18010.52063538  .00002500  00000-0  76185-4 0  9992
2 28939  98.2296 239.0408 0103208 185.8468 174.1574 15.30057434644802
RESURS-DK 1             
1 29228U 06021A   18010.19418578  .00000070  00000-0  12651-4 0  9991
2 29228  69.9362 291.3638 0004411 342.9219  17.1792 15.02271441639183
GENESIS 1               
1 29252U 06029A   18010.09143421  .00000585  00000-0  39307-4 0  9995
2 29252  64.5067 329.5857 0035773 303.2774  56.4923 15.17148660633213
CZ-4B R/B               
1 29507U 06046C   18010.51383306  .00000990  00000-0  82163-4 0  9990
2 29507  97.7854  23.1977 0051276 269.2870  90.2478 15.00224880612121
CZ-2C R/B               
1 31114U 07010B   18009.76230261 -.00000029  00000-0  55172-5 0  9990
2 31114  98.3810 266.3159 0059382 336.8710  22.9796 14.19262830556814
COSMO-SKYMED 1          
1 31598U 07023A   18010.49846416  .00000196  00000-0  31163-4 0  9994
2 31598  97.8873 196.2463 0001412  75.8868 284.2505 14.82154895573155
GENESIS 2               
1 31789U 07028A   18009.51091549  .00000277  00000-0  24439-4 0  9999
2 31789  64.5046  10.1733 0006854 241.7113 118.3318 15.16396192580193
COSMOS 2428             
1 31792U 07029A   18010.50893096  .00000325  00000-0  20176-3 0  9999
2 31792  70.9442 337.0568 0010105 310.4491  49.5748 14.12422303543349
SL-16 R/B               
1 31793U 07029B   18009.94896373  .00000143  00000-0  99452-4 0  9999
2 31793  70.9772 314.8510 0002429 260.7950 159.8069 14.14397541543914
KORONAS-FOTON           
1 33504U 09003A   18010.50245208  .00000421  00000-0  20688-4 0  9998
2 33504  82.4415  26.9393 0020910 111.9484 248.3973 15.15061250492864
TIANGONG 1              
1 37820U 11053A   18010.40910800  .00075544  10652-4  15720-3 0  9993
2 37820  42.7535 355.8542 0017556 134.2133 352.8888 15.98438435360899
H-2A R/B                
1 38341U 12025E   18009.81582202  .00000138  00000-0  23873-4 0  9994
2 38341  98.4227 103.2547 0055255 212.5341 147.2462 14.83695633305513
CUSAT 2 & FALCON 9 R/B  
1 39271U 13055G   18009.89421136  .00003361  00000-0  85926-4 0  9995
2 39271  80.9681 138.0223 0621445 309.5606  45.2217 14.39823520222347
ALOS-2                  
1 39766U 14029A   18010.20678668  .00000154  00000-0  27488-4 0  9993
2 39766  97.9213 109.5700 0001482  81.3017 278.8371 14.79472897196214
SL-27 R/B               
1 40354U 14084B   18010.14543090  .00000860  00000-0  23212-4 0  9997
2 40354  74.7388  65.9564 0039908 341.8407  18.1376 15.38762986171680
ASTRO-H (HITOMI)        
1 41337U 16012A   18009.90430259  .00000211  00000-0  10182-4 0  9998
2 41337  31.0050 248.7858 0012600 281.9892  77.9330 14.98417450103959
TIANGONG-2              
1 41765U 16057A   18010.54639300  .00002704  00000-0  37006-4 0  9995
2 41765  42.7822 202.2876 0004199 258.4368 133.8348 15.60071266 75350
SHENZHOU-11 MODULE      
1 41868U 16061G   18009.83382029  .00006001  00000-0  52968-4 0  9995
2 41868  42.7934 189.8087 0000930 115.1646 339.9988 15.69506598 65379
